[{"OBJECT_NAME":"STARLINK-32712","OBJECT_ID":"2024-251B","EPOCH":"2026-03-09T22:20:57.193728","MEAN_MOTION":15.30216568,"ECCENTRICITY":0.00022377,"INCLINATION":53.1619,"RA_OF_ASC_NODE":334.3063,"ARG_OF_PERICENTER":150.1412,"MEAN_ANOMALY":209.9717,"EPHEMERIS_TYPE":0,"CLASSIFICATION_TYPE":"U","NORAD_CAT_ID":62433,"ELEMENT_SET_NO":999,"REV_AT_EPOCH":6798,"BSTAR":0.0013565253,"MEAN_MOTION_DOT":0.00040056,"MEAN_MOTION_DDOT":0},{"OBJECT_NAME":"ELECTRON KICK STAGE R\/B","OBJECT_ID":"2022-147B","EPOCH":"2026-03-09T22:28:20.187264","MEAN_MOTION":15.28920172,"ECCENTRICITY":0.00095089,"INCLINATION":97.642,"RA_OF_ASC_NODE":85.1135,"ARG_OF_PERICENTER":110.4683,"MEAN_ANOMALY":249.7578,"EPHEMERIS_TYPE":0,"CLASSIFICATION_TYPE":"U","NORAD_CAT_ID":54228,"ELEMENT_SET_NO":999,"REV_AT_EPOCH":18390,"BSTAR":0.00083201931,"MEAN_MOTION_DOT":0.00023374,"MEAN_MOTION_DDOT":0}]
